OBJECT_NAME,OBJECT_ID,EPOCH,MEAN_MOTION,ECCENTRICITY,INCLINATION,RA_OF_ASC_NODE,ARG_OF_PERICENTER,MEAN_ANOMALY,EPHEMERIS_TYPE,CLASSIFICATION_TYPE,NORAD_CAT_ID,ELEMENT_SET_NO,REV_AT_EPOCH,BSTAR,MEAN_MOTION_DOT,MEAN_MOTION_DDOT
ZHONGXING-2C,2015-063A,2026-06-08T19:00:31.049856,1.00268146,.00077083,0.2508,90.2727,95.8860,99.5530,0,U,41021,999,3889,0,-.307E-5,0
GSAT-15,2015-065A,2026-06-09T02:21:38.742048,1.00270683,.00039422,0.0509,111.3757,328.0841,306.9428,0,U,41028,999,3871,0,-.241E-5,0
BADR-7 (ARABSAT-6B),2015-065B,2026-06-09T04:54:22.560192,1.00270783,.00033847,0.0364,234.9575,323.4666,158.7412,0,U,41029,999,3868,0,.161E-5,0
LAOSAT 1,2015-067A,2026-06-09T07:06:17.997696,1.00273765,.00024705,0.0384,185.8064,209.2814,97.6662,0,U,41034,999,3878,0,-.326E-5,0
TELSTAR 12V,2015-068A,2026-06-09T04:42:38.683584,1.00271099,.0002316,0.0227,64.9271,11.2829,237.0364,0,U,41036,999,3854,0,-.102E-5,0
ELEKTRO-L 2,2015-074A,2026-06-09T06:22:25.775904,1.00271831,.00010068,6.6730,70.6207,284.5070,343.6389,0,U,41105,999,3842,0,-.102E-5,0
COSMOS 2513,2015-075A,2026-06-07T08:40:25.028256,1.00272440,.00036874,0.0781,99.8531,329.6914,36.5844,0,U,41121,999,3845,0,-.124E-5,0
EXPRESS-AMU1,2015-082A,2026-06-09T06:39:51.794784,1.00269722,.00026922,0.0205,348.6833,92.9794,312.0402,0,U,41191,999,3818,0,0,0
GAOFEN-4,2015-083A,2026-06-08T14:20:42.251136,1.00273550,.00041656,0.3341,83.8441,111.8448,22.1741,0,U,41194,999,3844,0,-.319E-5,0
BELINTERSAT-1,2016-001A,2026-06-09T01:36:19.795392,1.00274516,.00021834,0.0445,123.5213,287.2015,282.3172,0,U,41238,999,3815,0,.123E-5,0
IRNSS-1E,2016-003A,2026-06-08T15:37:22.092096,1.00269056,.00179151,33.2165,59.8739,179.3895,3.8192,0,U,41241,999,3799,0,-.296E-5,0
EUTELSAT 9B,2016-005A,2026-06-09T06:32:07.535616,1.00272593,.00018108,0.0603,72.3490,334.1834,318.1389,0,U,41310,999,3803,0,.79E-6,0
SES-9,2016-013A,2026-06-09T01:52:23.570976,1.00273663,.000199,0.0108,336.9667,107.7708,309.1219,0,U,41380,999,3735,0,-.329E-5,0
EUTELSAT 65 WEST A,2016-014A,2026-06-09T06:11:02.058144,1.00272289,.00022554,0.0499,8.9930,59.5338,216.6841,0,U,41382,999,3744,0,-.26E-5,0
IRNSS-1F,2016-015A,2026-06-09T01:30:57.810240,1.00278601,.00165922,5.3287,96.9647,186.7296,29.0825,0,U,41384,999,3758,0,.175E-5,0
BEIDOU-2 IGSO-6,2016-021A,2026-06-08T23:55:01.304832,1.00261117,.00571186,60.2137,38.1225,231.5364,79.8340,0,U,41434,999,3739,0,-.154E-5,0
IRNSS-1G,2016-027A,2026-06-09T07:06:32.974272,1.00270090,.00074974,5.1787,97.6557,352.9448,43.2885,0,U,41469,999,3710,0,-.317E-5,0
JCSAT-2B,2016-028A,2026-06-09T05:30:50.654880,1.00269880,.00009332,0.0178,355.4314,91.4650,47.4212,0,U,41471,999,3705,0,-.149E-5,0
THAICOM 8,2016-031A,2026-06-09T03:26:39.926688,1.00270432,.0003703,0.0672,46.4148,11.2988,330.0130,0,U,41552,999,3663,0,-.105E-5,0
INTELSAT 31 (IS-31),2016-035A,2026-06-09T05:56:15.666720,1.00270941,.00009213,0.0207,261.7205,344.8969,5.0340,0,U,41581,999,3660,0,-.134E-5,0
BEIDOU-2 G7,2016-037A,2026-06-09T07:01:10.989120,1.00268616,.00072013,1.6995,69.2528,2.7092,41.5387,0,U,41586,999,681,0,-.336E-5,0
ABS-2A (MONGOLSAT-1),2016-038A,2026-06-09T04:42:21.869280,1.00267217,.00013149,0.0181,323.1928,62.4355,17.2924,0,U,41588,999,3662,0,0,0
EUTELSAT 117 WEST B,2016-038B,2026-06-09T00:48:06.000192,1.00276750,.00003453,0.0422,159.6913,138.3370,214.4010,0,U,41589,999,3658,0,.4E-7,0
BRISAT,2016-039A,2026-06-09T05:29:50.751168,1.00270542,.00020317,0.0191,313.3052,124.2702,52.9977,0,U,41591,999,3653,0,-.18E-5,0
ECHOSTAR 18,2016-039B,2026-06-09T01:04:05.071296,1.00271708,.00013931,0.0178,340.8727,102.1330,129.0878,0,U,41592,999,3654,0,-.265E-5,0
MUOS-5,2016-041A,2026-06-09T05:01:40.387008,1.00271270,.01969486,2.2216,301.4852,260.8787,25.4083,0,U,41622,999,3700,0,-.97E-6,0
TIANTONG-1 1,2016-048A,2026-06-09T02:21:38.742048,1.00270717,.00060378,3.8330,43.3412,43.1119,307.8642,0,U,41725,999,3618,0,-.302E-5,0
JCSAT-16,2016-050A,2026-06-09T05:27:58.431168,1.00270108,.0000921,0.0177,356.2594,90.5519,36.7275,0,U,41729,999,3599,0,-.234E-5,0
USA 270,2016-052A,2026-06-08T02:16:56.129376,1.00284145,.0008515,4.1755,77.3049,337.9683,59.8197,0,U,41744,999,2804,0,.95E-6,0
USA 271,2016-052B,2026-06-07T19:08:42.969984,1.00262239,.0010783,4.1460,77.3775,157.2143,71.4983,0,U,41745,999,2782,0,-.344E-5,0
INTELSAT 36 (IS-36),2016-053A,2026-06-09T05:06:28.899072,1.00270500,.00018987,0.0107,348.5946,347.6666,66.4482,0,U,41747,999,3587,0,-.7E-7,0
INSAT-3DR,2016-054A,2026-06-09T03:25:02.582400,1.00270533,.00104417,0.0844,87.5464,186.6911,108.5347,0,U,41752,999,3573,0,-.6E-6,0
